[{"OBJECT_NAME":"ONEWEB-0212","OBJECT_ID":"2021-045AA","EPOCH":"2026-03-10T02:34:22.561248","MEAN_MOTION":13.15547719,"ECCENTRICITY":0.00016283,"INCLINATION":87.8946,"RA_OF_ASC_NODE":278.9649,"ARG_OF_PERICENTER":87.7202,"MEAN_ANOMALY":272.4115,"EPHEMERIS_TYPE":0,"CLASSIFICATION_TYPE":"U","NORAD_CAT_ID":48791,"ELEMENT_SET_NO":999,"REV_AT_EPOCH":23140,"BSTAR":0.00038009536,"MEAN_MOTION_DOT":1.56e-6,"MEAN_MOTION_DDOT":0},{"OBJECT_NAME":"ONEWEB-0227","OBJECT_ID":"2021-045AB","EPOCH":"2026-03-10T13:30:22.503744","MEAN_MOTION":13.15547635,"ECCENTRICITY":0.0001679,"INCLINATION":87.8941,"RA_OF_ASC_NODE":278.8765,"ARG_OF_PERICENTER":91.2838,"MEAN_ANOMALY":268.8485,"EPHEMERIS_TYPE":0,"CLASSIFICATION_TYPE":"U","NORAD_CAT_ID":48792,"ELEMENT_SET_NO":999,"REV_AT_EPOCH":23141,"BSTAR":0.00026771,"MEAN_MOTION_DOT":1.14e-6,"MEAN_MOTION_DDOT":0},{"OBJECT_NAME":"ONEWEB-0226","OBJECT_ID":"2021-045AC","EPOCH":"2026-03-10T13:21:14.539392","MEAN_MOTION":13.15547568,"ECCENTRICITY":0.0001569,"INCLINATION":87.8936,"RA_OF_ASC_NODE":278.8864,"ARG_OF_PERICENTER":101.8242,"MEAN_ANOMALY":258.3064,"EPHEMERIS_TYPE":0,"CLASSIFICATION_TYPE":"U","NORAD_CAT_ID":48793,"ELEMENT_SET_NO":999,"REV_AT_EPOCH":23138,"BSTAR":0.0001635,"MEAN_MOTION_DOT":7.4e-7,"MEAN_MOTION_DDOT":0},{"OBJECT_NAME":"ONEWEB-0224","OBJECT_ID":"2021-045AD","EPOCH":"2026-03-10T12:28:47.305344","MEAN_MOTION":13.15549364,"ECCENTRICITY":0.0002494,"INCLINATION":87.8938,"RA_OF_ASC_NODE":278.9297,"ARG_OF_PERICENTER":86.869,"MEAN_ANOMALY":273.2726,"EPHEMERIS_TYPE":0,"CLASSIFICATION_TYPE":"U","NORAD_CAT_ID":48794,"ELEMENT_SET_NO":999,"REV_AT_EPOCH":23130,"BSTAR":-0.00026586,"MEAN_MOTION_DOT":-8.7e-7,"MEAN_MOTION_DDOT":0},{"OBJECT_NAME":"ONEWEB-0233","OBJECT_ID":"2021-045AE","EPOCH":"2026-03-10T12:35:24.551808","MEAN_MOTION":13.15548123,"ECCENTRICITY":0.0001845,"INCLINATION":87.8935,"RA_OF_ASC_NODE":278.9377,"ARG_OF_PERICENTER":96.6406,"MEAN_ANOMALY":263.4934,"EPHEMERIS_TYPE":0,"CLASSIFICATION_TYPE":"U","NORAD_CAT_ID":48795,"ELEMENT_SET_NO":999,"REV_AT_EPOCH":23132,"BSTAR":-0.00036813,"MEAN_MOTION_DOT":-1.26e-6,"MEAN_MOTION_DDOT":0},{"OBJECT_NAME":"ONEWEB-0190","OBJECT_ID":"2021-045AF","EPOCH":"2026-03-10T12:17:21.057792","MEAN_MOTION":13.15548998,"ECCENTRICITY":0.0001955,"INCLINATION":87.8937,"RA_OF_ASC_NODE":278.9011,"ARG_OF_PERICENTER":111.9786,"MEAN_ANOMALY":248.1553,"EPHEMERIS_TYPE":0,"CLASSIFICATION_TYPE":"U","NORAD_CAT_ID":48796,"ELEMENT_SET_NO":999,"REV_AT_EPOCH":23139,"BSTAR":6.5576e-6,"MEAN_MOTION_DOT":1.5e-7,"MEAN_MOTION_DDOT":0},{"OBJECT_NAME":"ONEWEB-0236","OBJECT_ID":"2021-045AG","EPOCH":"2026-03-10T12:42:27.046944","MEAN_MOTION":13.15548345,"ECCENTRICITY":0.0001647,"INCLINATION":87.8937,"RA_OF_ASC_NODE":278.9088,"ARG_OF_PERICENTER":84.4233,"MEAN_ANOMALY":275.7085,"EPHEMERIS_TYPE":0,"CLASSIFICATION_TYPE":"U","NORAD_CAT_ID":48797,"ELEMENT_SET_NO":999,"REV_AT_EPOCH":23128,"BSTAR":-0.00015186,"MEAN_MOTION_DOT":-4.4e-7,"MEAN_MOTION_DDOT":0},{"OBJECT_NAME":"ONEWEB-0248","OBJECT_ID":"2021-045AH","EPOCH":"2026-03-10T02:03:34.484256","MEAN_MOTION":13.15550653,"ECCENTRICITY":0.00020507,"INCLINATION":87.8944,"RA_OF_ASC_NODE":278.9709,"ARG_OF_PERICENTER":99.4041,"MEAN_ANOMALY":260.7321,"EPHEMERIS_TYPE":0,"CLASSIFICATION_TYPE":"U","NORAD_CAT_ID":48798,"ELEMENT_SET_NO":999,"REV_AT_EPOCH":23138,"BSTAR":-9.938157e-6,"MEAN_MOTION_DOT":9.0e-8,"MEAN_MOTION_DDOT":0},{"OBJECT_NAME":"ONEWEB-0225","OBJECT_ID":"2021-045AJ","EPOCH":"2026-03-10T11:43:07.702176","MEAN_MOTION":13.15548265,"ECCENTRICITY":0.0001876,"INCLINATION":87.8936,"RA_OF_ASC_NODE":278.9065,"ARG_OF_PERICENTER":107.1125,"MEAN_ANOMALY":253.0211,"EPHEMERIS_TYPE":0,"CLASSIFICATION_TYPE":"U","NORAD_CAT_ID":48799,"ELEMENT_SET_NO":999,"REV_AT_EPOCH":23144,"BSTAR":0.0002952,"MEAN_MOTION_DOT":1.24e-6,"MEAN_MOTION_DDOT":0},{"OBJECT_NAME":"ONEWEB-0215","OBJECT_ID":"2021-045AK","EPOCH":"2026-03-10T12:49:18.469056","MEAN_MOTION":13.15548291,"ECCENTRICITY":0.0002091,"INCLINATION":87.8947,"RA_OF_ASC_NODE":278.87,"ARG_OF_PERICENTER":107.7187,"MEAN_ANOMALY":252.4172,"EPHEMERIS_TYPE":0,"CLASSIFICATION_TYPE":"U","NORAD_CAT_ID":48800,"ELEMENT_SET_NO":999,"REV_AT_EPOCH":23132,"BSTAR":-0.00033204,"MEAN_MOTION_DOT":-1.12e-6,"MEAN_MOTION_DDOT":0},{"OBJECT_NAME":"ONEWEB-0216","OBJECT_ID":"2021-045AL","EPOCH":"2026-03-10T13:02:59.236224","MEAN_MOTION":13.15551959,"ECCENTRICITY":0.0001492,"INCLINATION":87.8939,"RA_OF_ASC_NODE":278.8881,"ARG_OF_PERICENTER":90.9737,"MEAN_ANOMALY":269.1565,"EPHEMERIS_TYPE":0,"CLASSIFICATION_TYPE":"U","NORAD_CAT_ID":48801,"ELEMENT_SET_NO":999,"REV_AT_EPOCH":23133,"BSTAR":-0.00018409,"MEAN_MOTION_DOT":-5.6e-7,"MEAN_MOTION_DDOT":0},{"OBJECT_NAME":"ONEWEB-0239","OBJECT_ID":"2021-045AM","EPOCH":"2026-03-10T02:12:42.195456","MEAN_MOTION":13.15547792,"ECCENTRICITY":0.00023088,"INCLINATION":87.8935,"RA_OF_ASC_NODE":278.9924,"ARG_OF_PERICENTER":105.3719,"MEAN_ANOMALY":254.7666,"EPHEMERIS_TYPE":0,"CLASSIFICATION_TYPE":"U","NORAD_CAT_ID":48802,"ELEMENT_SET_NO":999,"REV_AT_EPOCH":23131,"BSTAR":0.00016035859,"MEAN_MOTION_DOT":7.3e-7,"MEAN_MOTION_DDOT":0},{"OBJECT_NAME":"ONEWEB-0249","OBJECT_ID":"2021-060A","EPOCH":"2026-03-10T11:38:10.480992","MEAN_MOTION":13.16594546,"ECCENTRICITY":0.0001751,"INCLINATION":87.9006,"RA_OF_ASC_NODE":248.409,"ARG_OF_PERICENTER":93.8814,"MEAN_ANOMALY":266.2517,"EPHEMERIS_TYPE":0,"CLASSIFICATION_TYPE":"U","NORAD_CAT_ID":48967,"ELEMENT_SET_NO":999,"REV_AT_EPOCH":22662,"BSTAR":0.00031464,"MEAN_MOTION_DOT":1.33e-6,"MEAN_MOTION_DDOT":0},{"OBJECT_NAME":"ONEWEB-0250","OBJECT_ID":"2021-060B","EPOCH":"2026-03-10T12:28:48.322272","MEAN_MOTION":13.25827352,"ECCENTRICITY":0.0002589,"INCLINATION":87.9004,"RA_OF_ASC_NODE":246.4787,"ARG_OF_PERICENTER":82.4368,"MEAN_ANOMALY":277.7062,"EPHEMERIS_TYPE":0,"CLASSIFICATION_TYPE":"U","NORAD_CAT_ID":48968,"ELEMENT_SET_NO":999,"REV_AT_EPOCH":22714,"BSTAR":0.000123,"MEAN_MOTION_DOT":6.7e-7,"MEAN_MOTION_DDOT":0},{"OBJECT_NAME":"ONEWEB-0252","OBJECT_ID":"2021-060D","EPOCH":"2026-03-10T12:22:37.599744","MEAN_MOTION":13.16593519,"ECCENTRICITY":0.0001437,"INCLINATION":87.9006,"RA_OF_ASC_NODE":248.3959,"ARG_OF_PERICENTER":101.6303,"MEAN_ANOMALY":258.4989,"EPHEMERIS_TYPE":0,"CLASSIFICATION_TYPE":"U","NORAD_CAT_ID":48970,"ELEMENT_SET_NO":999,"REV_AT_EPOCH":22667,"BSTAR":1.2186e-5,"MEAN_MOTION_DOT":1.8e-7,"MEAN_MOTION_DDOT":0},{"OBJECT_NAME":"ONEWEB-0253","OBJECT_ID":"2021-060E","EPOCH":"2026-03-10T12:06:40.982400","MEAN_MOTION":13.16595977,"ECCENTRICITY":0.0001717,"INCLINATION":87.9004,"RA_OF_ASC_NODE":248.4038,"ARG_OF_PERICENTER":97.4571,"MEAN_ANOMALY":262.6755,"EPHEMERIS_TYPE":0,"CLASSIFICATION_TYPE":"U","NORAD_CAT_ID":48971,"ELEMENT_SET_NO":999,"REV_AT_EPOCH":22660,"BSTAR":0.00019539,"MEAN_MOTION_DOT":8.8e-7,"MEAN_MOTION_DDOT":0},{"OBJECT_NAME":"ONEWEB-0254","OBJECT_ID":"2021-060F","EPOCH":"2026-03-10T12:20:20.797440","MEAN_MOTION":13.165941,"ECCENTRICITY":0.0001972,"INCLINATION":87.9008,"RA_OF_ASC_NODE":248.3964,"ARG_OF_PERICENTER":100.6962,"MEAN_ANOMALY":259.4391,"EPHEMERIS_TYPE":0,"CLASSIFICATION_TYPE":"U","NORAD_CAT_ID":48972,"ELEMENT_SET_NO":999,"REV_AT_EPOCH":22660,"BSTAR":8.7121e-5,"MEAN_MOTION_DOT":4.6e-7,"MEAN_MOTION_DDOT":0}]
