ONEWEB-0212             
1 48791U 21045AA  26069.10720557  .00000156  00000+0  38010-3 0  9997
2 48791  87.8946 278.9649 0001628  87.7202 272.4115 13.15547719231406
ONEWEB-0227             
1 48792U 21045AB  26069.56276046  .00000114  00000+0  26771-3 0  9992
2 48792  87.8941 278.8765 0001679  91.2838 268.8485 13.15547635231418
ONEWEB-0226             
1 48793U 21045AC  26069.55641828  .00000074  00000+0  16350-3 0  9993
2 48793  87.8936 278.8864 0001569 101.8242 258.3064 13.15547568231386
ONEWEB-0224             
1 48794U 21045AD  26069.51999196 -.00000087  00000+0 -26586-3 0  9992
2 48794  87.8938 278.9297 0002494  86.8690 273.2726 13.15549364231306
ONEWEB-0233             
1 48795U 21045AE  26069.52458972 -.00000126  00000+0 -36813-3 0  9994
2 48795  87.8935 278.9377 0001845  96.6406 263.4934 13.15548123231322
ONEWEB-0190             
1 48796U 21045AF  26069.51204928  .00000015  00000+0  65576-5 0  9999
2 48796  87.8937 278.9011 0001955 111.9786 248.1553 13.15548998231398
ONEWEB-0236             
1 48797U 21045AG  26069.52947971 -.00000044  00000+0 -15186-3 0  9997
2 48797  87.8937 278.9088 0001647  84.4233 275.7085 13.15548345231282
ONEWEB-0248             
1 48798U 21045AH  26069.08581579  .00000009  00000+0 -99382-5 0  9999
2 48798  87.8944 278.9709 0002050  99.4041 260.7321 13.15550653231386
ONEWEB-0225             
1 48799U 21045AJ  26069.48828359  .00000124  00000+0  29520-3 0  9996
2 48799  87.8936 278.9065 0001876 107.1125 253.0211 13.15548265231444
ONEWEB-0215             
1 48800U 21045AK  26069.53424154 -.00000112  00000+0 -33204-3 0  9993
2 48800  87.8947 278.8700 0002091 107.7187 252.4172 13.15548291231323
ONEWEB-0216             
1 48801U 21045AL  26069.54374116 -.00000056  00000+0 -18409-3 0  9994
2 48801  87.8939 278.8881 0001492  90.9737 269.1565 13.15551959231330
ONEWEB-0239             
1 48802U 21045AM  26069.09215504  .00000073  00000+0  16036-3 0  9991
2 48802  87.8935 278.9924 0002308 105.3719 254.7666 13.15547792231314
ONEWEB-0249             
1 48967U 21060A   26069.48484353  .00000133  00000+0  31464-3 0  9992
2 48967  87.9006 248.4090 0001751  93.8814 266.2517 13.16594546226621
ONEWEB-0250             
1 48968U 21060B   26069.52000373  .00000067  00000+0  12300-3 0  9998
2 48968  87.9004 246.4787 0002589  82.4368 277.7062 13.25827352227143
ONEWEB-0252             
1 48970U 21060D   26069.51571296  .00000018  00000+0  12186-4 0  9996
2 48970  87.9006 248.3959 0001437 101.6303 258.4989 13.16593519226670
ONEWEB-0253             
1 48971U 21060E   26069.50464100  .00000088  00000+0  19539-3 0  9996
2 48971  87.9004 248.4038 0001717  97.4571 262.6755 13.16595977226609
ONEWEB-0254             
1 48972U 21060F   26069.51412960  .00000046  00000+0  87121-4 0  9992
2 48972  87.9008 248.3964 0001972 100.6962 259.4391 13.16594100226602
